COSMOS 2576             
1 59773U 24092A   26068.82603826  .00015211  00000+0  56283-3 0  9991
2 59773  97.4253 186.0053 0005946 159.7731 200.3745 15.27760963101271
STARLINK-35839          
1 67169U 25303G   26068.05679306  .00027896  00000+0  10185-2 0  9998
2 67169  43.0022 314.7014 0003414 257.7968 102.2502 15.27606005 12634
