[{"OBJECT_NAME":"COSMOS 2576","OBJECT_ID":"2024-092A","EPOCH":"2026-03-09T19:49:29.705664","MEAN_MOTION":15.27760963,"ECCENTRICITY":0.0005946,"INCLINATION":97.4253,"RA_OF_ASC_NODE":186.0053,"ARG_OF_PERICENTER":159.7731,"MEAN_ANOMALY":200.3745,"EPHEMERIS_TYPE":0,"CLASSIFICATION_TYPE":"U","NORAD_CAT_ID":59773,"ELEMENT_SET_NO":999,"REV_AT_EPOCH":10127,"BSTAR":0.00056283,"MEAN_MOTION_DOT":0.00015211,"MEAN_MOTION_DDOT":0},{"OBJECT_NAME":"STARLINK-35839","OBJECT_ID":"2025-303G","EPOCH":"2026-03-09T01:21:46.920384","MEAN_MOTION":15.27606005,"ECCENTRICITY":0.00034148,"INCLINATION":43.0022,"RA_OF_ASC_NODE":314.7014,"ARG_OF_PERICENTER":257.7968,"MEAN_ANOMALY":102.2502,"EPHEMERIS_TYPE":0,"CLASSIFICATION_TYPE":"U","NORAD_CAT_ID":67169,"ELEMENT_SET_NO":999,"REV_AT_EPOCH":1263,"BSTAR":0.0010184918,"MEAN_MOTION_DOT":0.00027896,"MEAN_MOTION_DDOT":0}]
